GSAT0225 (GALILEO 29)   
1 59598U 24079A   26198.02265471 -.00000028  00000+0  00000+0 0  9990
2 59598  55.1373 100.2459 0000523 335.7440 200.6347  1.70473788 13820
GSAT0227 (GALILEO 30)   
1 59600U 24079C   26194.98582021 -.00000030  00000+0  00000+0 0  9991
2 59600  55.1303 100.3294 0002845  67.2681 292.7822  1.70473814 13828
GSAT0232 (GALILEO 32)   
1 61182U 24167A   26197.61460391  .00000049  00000+0  00000+0 0  9994
2 61182  55.1789 220.5058 0006489 233.0865 155.9296  1.70474030 11387
GSAT0226 (GALILEO 31)   
1 61183U 24167B   26196.54067126  .00000056  00000+0  00000+0 0  9993
2 61183  55.1780 220.5424 0003207 236.6774 304.5756  1.70474006 11330
BEIDOU-3 M25            
1 61186U 24168B   26197.98586485 -.00000080  00000+0  00000+0 0  9998
2 61186  54.4447 301.2059 0003354 291.9069  64.5321  1.86229972 12339
BEIDOU-3 M27            
1 61187U 24168C   26197.88159973 -.00000079  00000+0  00000+0 0  9994
2 61187  54.4402 301.1922 0000892  46.1896  15.3797  1.86230020  9817
NAVSTAR 83 (USA 440)    
1 62339U 24242A   26198.25838145 -.00000102  00000+0  00000+0 0  9991
2 62339  54.8350 332.9620 0017935   4.2822 358.5302  2.00572110 11868
QZS-6 (MICHIBIKI-6)     
1 62876U 25023A   26198.14324322 -.00000243  00000+0  00000+0 0  9996
2 62876   0.0094  21.6626 0001797  92.4559 322.8532  1.00274853  5241
COSMOS 2584 [GLONASS-K2]
1 63130U 25042A   26194.88797737 -.00000010  00000+0  00000+0 0  9994
2 63130  65.0996  71.8945 0005460 213.8001 146.2394  2.13103784 10610
NAVSTAR 84 (USA 545)    
1 64202U 25116A   26198.00257787 -.00000082  00000+0  00000+0 0  9990
2 64202  55.2550  29.9311 0008410 339.3397  21.8986  2.00573658  8472
COSMOS 2596 [GLONASS-K1]
1 65590U 25206B   26194.33478170 -.00000064  00000+0  00000+0 0  9994
2 65590  64.6178 314.0753 0011126 307.7533 103.9433  2.13100618  6473
GSAT0233 (GALILEO 33)   
1 67160U 25302A   26197.55910839 -.00000028  00000+0  00000+0 0  9996
2 67160  54.3515 101.2938 0000972 153.0482  29.7567  1.70473838  3628
GSAT0234 (GALILEO 34)   
1 67162U 25302C   26197.84918500 -.00000028  00000+0  00000+0 0  9993
2 67162  54.3544 101.2845 0002216 322.1435 218.7937  1.70473930  3689
NAVSTAR 85 (USA 581)    
1 67588U 26017A   26197.11392141 -.00000025  00000+0  00000+0 0  9993
2 67588  55.1067  87.5942 0021564 260.2085  99.6021  2.00570476432193
NAVSTAR 86 (USA 585)    
1 68791U 26087A   26196.46816847  .00000049  00000+0  00000+0 0  9993
2 68791  54.9617 206.6692 0020461 106.0864 353.1427  2.00572628  1406
